sat18965
1 18965U 65027AN  20046.74171587  .00000321  00000-0  10771-2 0  9995
2 18965  90.2887 329.7931 0048246  57.0249 331.3857 12.97342525650270
